satname,norad_id,inclination_deg,eccentricity,mean_motion_rev_per_day,perigee_km,apogee_km,l1,l2
STARLINK-1402,45685,53.0446,0.0005432,15.49844829,413.4883816995625,420.8708136512769,1 45685U 20035AE  26097.83334490  .00144446  00000+0  25085-2 0  9990,2 45685  53.0446 244.1340 0005432 324.1676 288.6149 15.49844829  5932
STARLINK-1404,45686,53.1606,4.67e-05,15.38138425,451.29541502878874,451.93331380622385,1 45686U 20035AF  26097.76304285  .00077301  00000+0  20183-2 0  9991,2 45686  53.1606 273.9730 0000467   1.5896 358.5110 15.38138425323437
STARLINK-1413,45689,53.1588,0.0001363,15.30202637,474.27308501006337,476.14130663784545,1 45689U 20035AJ  26097.76725475  .00002594  00000+0  99687-4 0  9991,2 45689  53.1588 274.5155 0001363  85.8364 274.2792 15.30202637323347
STARLINK-1417,45693,53.0511,0.0002753,15.14081659,521.8678793846784,525.6680682632659,1 45693U 20035AN  26097.72330875  .00037097  00000+0  20210-2 0  9998,2 45693  53.0511 282.5658 0002753 331.1990  28.8850 15.14081659323293
STARLINK-1420,45695,53.0477,0.0004725,15.60007071,384.43980795537755,390.83346404139684,1 45695U 20035AQ  26097.83334490  .00193967  00000+0  23049-2 0  9991,2 45695  53.0477 241.1933 0004725 278.8068 111.9998 15.60007071  5658
STARLINK-1422,45696,53.1572,8.34e-05,15.30321185,474.28171734383886,475.4247961186611,1 45696U 20035AR  26097.77455775  .00024753  00000+0  84194-3 0  9990,2 45696  53.1572 274.4813 0000834  83.7496 276.3600 15.30321185323423
STARLINK-1351,45697,53.0472,0.0005476,15.58354206,388.7123024886032,396.1274163610442,1 45697U 20035AS  26097.83334490  .00162652  00000+0  20664-2 0  9990,2 45697  53.0472 240.6975 0005476 290.7195  81.6053 15.58354206  5964
STARLINK-1400,45700,53.0461,0.000505,15.56325442,394.8803658133602,401.7245696757818,1 45700U 20035AV  26097.83334490  .00179306  00000+0  24516-2 0  9999,2 45700  53.0461 242.4481 0005050 231.8132 104.6017 15.56325442  5913
STARLINK-1403,45701,53.1558,0.0001123,15.29359266,476.9565860381417,478.49641298013194,1 45701U 20035AW  26097.87641578  .00004274  00000+0  16034-3 0  9990,2 45701  53.1558 261.1097 0001123  95.5020 264.6109 15.29359266323611
STARLINK-1407,45703,53.0306,0.0003418,15.65749923,368.7759693499711,373.38973604127295,1 45703U 20035AY  26097.47049043  .00050431  00000+0  49146-3 0  9993,2 45703  53.0306 174.8625 0003418 230.9318 129.1393 15.65749923324797
STARLINK-1411,45706,53.0397,0.000483,15.69238051,357.8225856084091,364.33266693738824,1 45706U 20035BB  26097.83334490  .00157854  00000+0  13077-2 0  9999,2 45706  53.0397 198.3175 0004830 326.0636 178.4423 15.69238051  5998
STARLINK-1423,45710,53.0455,0.0006364,15.5883228,386.72759159725956,395.3433943463151,1 45710U 20035BF  26097.83334490  .00195231  00000+0  24244-2 0  9993,2 45710  53.0455 240.9795 0006364 256.1611 158.8450 15.58832280  5961
STARLINK-1433,45711,53.0456,0.0005895,15.61169364,380.29168951609154,388.2645769581786,1 45711U 20035BG  26097.83334490  .00204539  00000+0  23208-2 0  9995,2 45711  53.0456 239.5779 0005895 252.1051 244.7998 15.61169364  5974
STARLINK-1434,45712,53.0527,0.0002575,15.29697222,474.9515602396159,478.4818098874248,1 45712U 20035BH  26097.67348881  .00059883  00000+0  20490-2 0  9997,2 45712  53.0527 245.5078 0002575 225.2739 134.8050 15.29697222323827
STARLINK-1465,45731,53.0486,0.0005861,15.5488124,398.52374190732735,406.4720021042922,1 45731U 20038B   26097.83334490  .00158655  00000+0  22942-2 0  9991,2 45731  53.0486  82.8318 0005861  42.8817  84.4044 15.54881240  5858
STARLINK-1471,45735,53.0478,0.0001681,15.50630882,413.7410213499079,416.024834649701,1 45735U 20038F   26097.15169585  .00034677  00000+0  60013-3 0  9990,2 45735  53.0478   5.4995 0001681  49.0754 311.0400 15.50630882321946
STARLINK-1480,45741,53.0509,0.0002803,15.5696148,394.5579172563157,398.3557545607255,1 45741U 20038M   26097.83334490  .00168976  00000+0  22604-2 0  9994,2 45741  53.0509  76.9303 0002803 108.9555 258.1166 15.56961480  5941
STARLINK-1500,45744,53.0369,0.0003253,15.36501231,454.2417611569099,458.6883532553293,1 45744U 20038Q   26097.90027748  .00025315  00000+0  70869-3 0  9996,2 45744  53.0369  55.5567 0003253  35.8826 324.2393 15.36501231321302
STARLINK-1504,45746,53.0236,8.3e-05,15.55335926,400.6136267019074,401.73899271131904,1 45746U 20038S   26097.43137440  .00040708  00000+0  59306-3 0  9993,2 45746  53.0236   3.3135 0000830  79.9347 280.1757 15.55335926321989
STARLINK-1506,45747,53.0752,0.0003337,15.26957196,482.6244287786094,487.2048294358756,1 45747U 20038T   26097.20547793  .00011042  00000+0  42406-3 0  9997,2 45747  53.0752  70.3913 0003337   9.3320 350.7740 15.26957196321044
STARLINK-1464,45751,53.0488,0.0003562,15.47712734,420.9961705611777,425.8415989734858,1 45751U 20038X   26097.83334490  .00122671  00000+0  23036-2 0  9997,2 45751  53.0488  65.7108 0003562  55.5977 154.8307 15.47712734  5940
STARLINK-1477,45754,53.0504,0.0003125,15.15946003,515.9529929050095,520.2631460734401,1 45754U 20038AA  26097.65701343  .00038348  00000+0  19812-2 0  9999,2 45754  53.0504  81.1421 0003125  69.0264 291.1064 15.15946003320922
STARLINK-1478,45755,53.0487,0.0003744,15.60192548,384.5675065865771,389.6333163602885,1 45755U 20038AB  26097.18585137  .00112626  00000+0  13452-2 0  9995,2 45755  53.0487  59.5750 0003744  39.1991 320.9291 15.60192548321177
STARLINK-1493,45759,53.0499,0.0004863,15.55511531,397.36954745130697,403.96261132632026,1 45759U 20038AF  26097.83334490  .00149621  00000+0  21172-2 0  9998,2 45759  53.0499  64.0912 0004863 105.9239  72.7295 15.55511531  5856
STARLINK-1494,45760,53.0476,0.000538,15.811682,323.5285000068934,330.7433736869407,1 45760U 20038AG  26097.83334490  .00061374  00000+0  30779-3 0  9992,2 45760  53.0476   6.0153 0005380 123.5240 201.7135 15.81168200  5777
STARLINK-1502,45764,53.0494,0.000629,15.51998295,406.6219763017107,415.1625751305619,1 45764U 20038AL  26097.83334490  .00137953  00000+0  22210-2 0  9993,2 45764  53.0494  66.3233 0006290  94.1037 216.6701 15.51998295  5953
STARLINK-1470,45772,53.0469,0.0003366,15.3075053,471.2654935693845,475.8780639192355,1 45772U 20038AU  26097.82251314  .00055431  00000+0  18379-2 0  9995,2 45772  53.0469  38.8387 0003366 103.5611 256.5763 15.30750530321533
STARLINK-1482,45773,53.1605,0.0003549,15.32824466,464.9605923503159,469.8195474645372,1 45773U 20038AV  26097.85725090  .00048055  00000+0  14967-2 0  9999,2 45773  53.1605  55.3273 0003549 103.4036 256.7361 15.32824466321312
STARLINK-1496,45780,53.0513,2.03e-05,15.5360887,406.0617677029204,406.33721176440395,1 45780U 20038BC  26097.83830846  .00109056  00000+0  16653-2 0  9994,2 45780  53.0513  37.8142 0000203 113.7500 246.3531 15.53608870321531
STARLINK-1513,45786,53.1604,0.0001258,15.30199023,474.3558345094616,476.080138624081,1 45786U 20038BJ  26097.88620287  .00001527  00000+0  63666-4 0  9993,2 45786  53.1604  55.5372 0001258  85.9478 274.1666 15.30199023321310
STARLINK-1522,46027,53.066,0.0002524,15.10622217,532.5565216563309,536.0459204703238,1 46027U 20055A   26097.87561887  .00026019  00000+0  15682-2 0  9996,2 46027  53.0660 354.8090 0002524 135.3381 224.7813 15.10622217313299
STARLINK-1523,46028,53.1603,0.0001289,15.30189686,474.36246428584946,476.1292663885333,1 46028U 20055B   26097.84860414  .00002609  00000+0  10023-3 0  9996,2 46028  53.1603 351.2640 0001289  77.6961 282.4184 15.30189686313369
STARLINK-1526,46029,53.1587,0.0001175,15.30210313,474.379011583168,475.9895420832245,1 46029U 20055C   26097.71165195 -.00005258  00000+0 -16547-3 0  9999,2 46029  53.1587 351.9084 0001175  86.1096 274.0039 15.30210313313333
STARLINK-1555,46032,53.1602,0.0001219,15.30199461,474.38125496319935,476.05210259008436,1 46032U 20055F   26097.69585191  .00004752  00000+0  17246-3 0  9995,2 46032  53.1602 351.9692 0001219  77.6402 282.4736 15.30199461313332
STARLINK-1556,46033,53.1552,0.0001573,15.2935463,476.661924981453,478.81878399717425,1 46033U 20055G   26097.87155962  .00001305  00000+0  57572-4 0  9993,2 46033  53.1552 351.1323 0001573  81.9407 278.1772 15.29354630313337
STARLINK-1557,46034,53.1546,0.0001265,15.29379359,476.7991919761962,478.53371024932676,1 46034U 20055H   26097.86531299  .00007918  00000+0  28622-3 0  9993,2 46034  53.1546 351.0627 0001265 102.8594 257.2547 15.29379359313338
STARLINK-1558,46035,53.1605,0.0001335,15.30185297,474.34404191657813,476.17389864064353,1 46035U 20055J   26097.68952521  .00001188  00000+0  52255-4 0  9992,2 46035  53.1605 352.0082 0001335  69.4735 290.6408 15.30185297313339
STARLINK-1560,46036,53.156,0.000486,15.29376141,474.3441429408531,481.007993243039,1 46036U 20055K   26097.86210574 -.00005534  00000+0 -17933-3 0  9992,2 46036  53.1560 351.1179 0004860  84.0878 276.0676 15.29376141313360
STARLINK-1567,46038,53.0885,8.51e-05,15.74326848,345.97512548258146,347.11966676680186,1 46038U 20055M   26097.68139906  .01112194  00000+0  67406-2 0  9992,2 46038  53.0885 348.2148 0000851 142.8060 217.3018 15.74326848313374
STARLINK-1569,46039,53.1588,9.56e-05,15.30187571,474.59699641852876,475.907364429826,1 46039U 20055N   26097.69268920  .00001383  00000+0  58814-4 0  9994,2 46039  53.1588 351.9880 0000956  91.2601 268.8509 15.30187571313325
STARLINK-1582,46043,53.1616,0.0001987,15.30193196,473.8736199192708,476.59715010507534,1 46043U 20055S   26097.69900759  .00002039  00000+0  80990-4 0  9991,2 46043  53.1616 351.9520 0001987  79.9500 280.1725 15.30193196313326
STARLINK-1591,46045,53.1598,0.0001167,15.30207303,474.3934804226046,475.9930477062371,1 46045U 20055U   26097.85597869  .00008390  00000+0  29500-3 0  9990,2 46045  53.1598 351.2293 0001167  68.7265 291.3860 15.30207303313332
STARLINK-1524,46047,53.1612,0.0001101,15.30204033,474.448474897682,475.9575803717671,1 46047U 20055W   26097.85013075 -.00002802  00000+0 -82495-4 0  9991,2 46047  53.1612 338.3924 0001101  87.2861 272.8265 15.30204033313536
